start=new Date('2021-11-28T00:00:00.000Z').valueOf();
sats=[{"NORAD_CAT_ID":"46578","FILE":"3225405","RA_OF_ASC_NODE":"324.5013","COUNTRY_CODE":"US","DECAY_DATE":null,"MEAN_MOTION":"15.06402594","MEAN_ANOMALY":"301.8243","CLASSIFICATION_TYPE":"U","SEMIMAJOR_AXIS":"6925.341","MEAN_MOTION_DDOT":"0.0000000000000","GP_ID":"190594500","LAUNCH_DATE":"2020-10-06","ECCENTRICITY":"0.00017990","ELEMENT_SET_NO":"999","BSTAR":"0.00001366500000","OBJECT_TYPE":"PAYLOAD","SITE":"AFETR","TIME_SYSTEM":"UTC","OBJECT_NAME":"STARLINK-1683","INCLINATION":"53.0546","OBJECT_ID":"2020-070AY","TLE_LINE2":"2 46578  53.0546 324.5013 0001799  58.2922 301.8243 15.06402594 64307","EPHEMERIS_TYPE":"0","REF_FRAME":"TEME","APOAPSIS":"548.451","PERIAPSIS":"545.960","CENTER_NAME":"EARTH","EPOCH":"2021-11-27T09:37:52.878144","PERIOD":"95.592","ARG_OF_PERICENTER":"58.2922","MEAN_MOTION_DOT":"-0.00000078","REV_AT_EPOCH":"6430","MEAN_ELEMENT_THEORY":"SGP4","TLE_LINE1":"1 46578U 20070AY  21331.40130646 -.00000078  00000-0  13665-4 0  9994","RCS_SIZE":"LARGE"},{"RA_OF_ASC_NODE":"337.9701","FILE":"3225675","NORAD_CAT_ID":"46579","COUNTRY_CODE":"US","DECAY_DATE":null,"MEAN_ANOMALY":"298.8328","MEAN_MOTION":"15.06405221","CLASSIFICATION_TYPE":"U","SEMIMAJOR_AXIS":"6925.333","LAUNCH_DATE":"2020-10-06","GP_ID":"190622582","MEAN_MOTION_DDOT":"0.0000000000000","ECCENTRICITY":"0.00017010","ELEMENT_SET_NO":"999","OBJECT_TYPE":"PAYLOAD","BSTAR":"0.00003177300000","SITE":"AFETR","TIME_SYSTEM":"UTC","OBJECT_NAME":"STARLINK-1705","INCLINATION":"53.0550","OBJECT_ID":"2020-070AZ","EPHEMERIS_TYPE":"0","TLE_LINE2":"2 46579  53.0550 337.9701 0001701  61.2832 298.8328 15.06405221 64143","APOAPSIS":"548.376","REF_FRAME":"TEME","CENTER_NAME":"EARTH","PERIAPSIS":"546.020","ARG_OF_PERICENTER":"61.2832","PERIOD":"95.592","EPOCH":"2021-11-27T17:48:12.875616","MEAN_MOTION_DOT":"0.00000192","REV_AT_EPOCH":"6414","TLE_LINE1":"1 46579U 20070AZ  21331.74181569  .00000192  00000-0  31773-4 0  9998","MEAN_ELEMENT_THEORY":"SGP4","RCS_SIZE":"LARGE"},{"EPOCH":"2021-11-27T17:16:23.005344","PERIOD":"95.592","ARG_OF_PERICENTER":"49.8145","RCS_SIZE":"LARGE","MEAN_ELEMENT_THEORY":"SGP4","TLE_LINE1":"1 46580U 20070BA  21331.71971071  .00000109  00000-0  26214-4 0  9994","REV_AT_EPOCH":"6414","MEAN_MOTION_DOT":"0.00000109","OBJECT_ID":"2020-070BA","INCLINATION":"53.0555","PERIAPSIS":"545.998","CENTER_NAME":"EARTH","APOAPSIS":"548.452","REF_FRAME":"TEME","TLE_LINE2":"2 46580  53.0555 338.0592 0001772  49.8145 310.2999 15.06396246 64146","EPHEMERIS_TYPE":"0","ELEMENT_SET_NO":"999","ECCENTRICITY":"0.00017720","MEAN_MOTION_DDOT":"0.0000000000000","LAUNCH_DATE":"2020-10-06","GP_ID":"190623318","TIME_SYSTEM":"UTC","OBJECT_NAME":"STARLINK-1708","SITE":"AFETR","BSTAR":"0.00002621400000","OBJECT_TYPE":"PAYLOAD","FILE":"3225675","RA_OF_ASC_NODE":"338.0592","NORAD_CAT_ID":"46580","SEMIMAJOR_AXIS":"6925.360","CLASSIFICATION_TYPE":"U","MEAN_MOTION":"15.06396246","MEAN_ANOMALY":"310.2999","DECAY_DATE":null,"COUNTRY_CODE":"US"},{"TIME_SYSTEM":"UTC","OBJECT_NAME":"STARLINK-1712","SITE":"AFETR","OBJECT_TYPE":"PAYLOAD","BSTAR":"0.00013113000000","ELEMENT_SET_NO":"999","ECCENTRICITY":"0.00017750","LAUNCH_DATE":"2020-10-06","GP_ID":"190623077","MEAN_MOTION_DDOT":"0.0000000000000","SEMIMAJOR_AXIS":"6925.357","CLASSIFICATION_TYPE":"U","MEAN_ANOMALY":"302.8376","MEAN_MOTION":"15.06397282","DECAY_DATE":null,"COUNTRY_CODE":"US","FILE":"3225675","NORAD_CAT_ID":"46581","RA_OF_ASC_NODE":"332.3126","RCS_SIZE":"LARGE","TLE_LINE1":"1 46581U 20070BB  21331.88419186  .00001672  00000-0  13113-3 0  9996","MEAN_ELEMENT_THEORY":"SGP4","REV_AT_EPOCH":"6423","MEAN_MOTION_DOT":"0.00001672","PERIOD":"95.592","ARG_OF_PERICENTER":"57.2784","EPOCH":"2021-11-27T21:13:14.176704","CENTER_NAME":"EARTH","PERIAPSIS":"545.993","APOAPSIS":"548.451","REF_FRAME":"TEME","EPHEMERIS_TYPE":"0","TLE_LINE2":"2 46581  53.0556 332.3126 0001775  57.2784 302.8376 15.06397282 64230","OBJECT_ID":"2020-070BB","INCLINATION":"53.0556"},{"MEAN_ELEMENT_THEORY":"SGP4","TLE_LINE1":"1 46582U 20070BC  21331.73676434 -.00000686  00000-0 -27160-4 0  9996","RCS_SIZE":"LARGE","MEAN_MOTION_DOT":"-0.00000686","REV_AT_EPOCH":"6421","EPOCH":"2021-11-27T17:40:56.438976","ARG_OF_PERICENTER":"57.0920","PERIOD":"95.593","APOAPSIS":"548.563","REF_FRAME":"TEME","PERIAPSIS":"545.909","CENTER_NAME":"EARTH","TLE_LINE2":"2 46582  53.0560 332.9300 0001916  57.0920 303.0254 15.06392556 64218","EPHEMERIS_TYPE":"0","OBJECT_ID":"2020-070BC","INCLINATION":"53.0560","SITE":"AFETR","TIME_SYSTEM":"UTC","OBJECT_NAME":"STARLINK-1728","BSTAR":"-0.00002716000000","OBJECT_TYPE":"PAYLOAD","ECCENTRICITY":"0.00019160","ELEMENT_SET_NO":"999","MEAN_MOTION_DDOT":"0.0000000000000","GP_ID":"190621833","LAUNCH_DATE":"2020-10-06","MEAN_MOTION":"15.06392556","MEAN_ANOMALY":"303.0254","SEMIMAJOR_AXIS":"6925.371","CLASSIFICATION_TYPE":"U","COUNTRY_CODE":"US","DECAY_DATE":null,"FILE":"3225675","NORAD_CAT_ID":"46582","RA_OF_ASC_NODE":"332.9300"},{"TIME_SYSTEM":"UTC","OBJECT_NAME":"STARLINK-1729","SITE":"AFETR","BSTAR":"0.00006756400000","OBJECT_TYPE":"PAYLOAD","ELEMENT_SET_NO":"999","ECCENTRICITY":"0.00015170","MEAN_MOTION_DDOT":"0.0000000000000","LAUNCH_DATE":"2020-10-06","GP_ID":"190622083","SEMIMAJOR_AXIS":"6925.354","CLASSIFICATION_TYPE":"U","MEAN_MOTION":"15.06398090","MEAN_ANOMALY":"302.2542","DECAY_DATE":null,"COUNTRY_CODE":"US","RA_OF_ASC_NODE":"352.7737","FILE":"3225675","NORAD_CAT_ID":"46583","RCS_SIZE":"LARGE","MEAN_ELEMENT_THEORY":"SGP4","TLE_LINE1":"1 46583U 20070BD  21331.78652046  .00000725  00000-0  67564-4 0  9999","REV_AT_EPOCH":"6393","MEAN_MOTION_DOT":"0.00000725","EPOCH":"2021-11-27T18:52:35.367744","ARG_OF_PERICENTER":"57.8594","PERIOD":"95.592","PERIAPSIS":"546.169","CENTER_NAME":"EARTH","APOAPSIS":"548.270","REF_FRAME":"TEME","TLE_LINE2":"2 46583  53.0543 352.7737 0001517  57.8594 302.2542 15.06398090 63934","EPHEMERIS_TYPE":"0","OBJECT_ID":"2020-070BD","INCLINATION":"53.0543"},{"PERIAPSIS":"545.882","CENTER_NAME":"EARTH","APOAPSIS":"548.533","REF_FRAME":"TEME","TLE_LINE2":"2 46584  53.0547 332.9616 0001914  55.8540 304.2630 15.06402032 64219","EPHEMERIS_TYPE":"0","OBJECT_ID":"2020-070BE","INCLINATION":"53.0547","RCS_SIZE":"LARGE","MEAN_ELEMENT_THEORY":"SGP4","TLE_LINE1":"1 46584U 20070BE  21331.74044015 -.00000244  00000-0  25382-5 0  9997","REV_AT_EPOCH":"6421","MEAN_MOTION_DOT":"-0.00000244","EPOCH":"2021-11-27T17:46:14.028960","PERIOD":"95.592","ARG_OF_PERICENTER":"55.8540","SEMIMAJOR_AXIS":"6925.342","CLASSIFICATION_TYPE":"U","MEAN_MOTION":"15.06402032","MEAN_ANOMALY":"304.2630","DECAY_DATE":null,"COUNTRY_CODE":"US","RA_OF_ASC_NODE":"332.9616","FILE":"3225675","NORAD_CAT_ID":"46584","OBJECT_NAME":"STARLINK-1732","TIME_SYSTEM":"UTC","SITE":"AFETR","BSTAR":"0.00000253820000","OBJECT_TYPE":"PAYLOAD","ELEMENT_SET_NO":"999","ECCENTRICITY":"0.00019140","MEAN_MOTION_DDOT":"0.0000000000000","LAUNCH_DATE":"2020-10-06","GP_ID":"190622819"},{"MEAN_MOTION":"15.06391850","MEAN_ANOMALY":"304.6411","CLASSIFICATION_TYPE":"U","SEMIMAJOR_AXIS":"6925.374","COUNTRY_CODE":"US","DECAY_DATE":null,"NORAD_CAT_ID":"46585","FILE":"3225405","RA_OF_ASC_NODE":"336.1716","SITE":"AFETR","TIME_SYSTEM":"UTC","OBJECT_NAME":"STARLINK-1736","BSTAR":"0.00003665800000","OBJECT_TYPE":"PAYLOAD","ECCENTRICITY":"0.00016480","ELEMENT_SET_NO":"999","MEAN_MOTION_DDOT":"0.0000000000000","LAUNCH_DATE":"2020-10-06","GP_ID":"190593777","APOAPSIS":"548.380","REF_FRAME":"TEME","PERIAPSIS":"546.097","CENTER_NAME":"EARTH","TLE_LINE2":"2 46585  53.0540 336.1716 0001648  55.4733 304.6411 15.06391850 64108","EPHEMERIS_TYPE":"0","OBJECT_ID":"2020-070BF","INCLINATION":"53.0540","MEAN_ELEMENT_THEORY":"SGP4","TLE_LINE1":"1 46585U 20070BF  21331.02906065  .00000264  00000-0  36658-4 0  9999","RCS_SIZE":"LARGE","MEAN_MOTION_DOT":"0.00000264","REV_AT_EPOCH":"6410","EPOCH":"2021-11-27T00:41:50.840160","PERIOD":"95.593","ARG_OF_PERICENTER":"55.4733"},{"RA_OF_ASC_NODE":"332.9419","FILE":"3225675","NORAD_CAT_ID":"46586","COUNTRY_CODE":"US","DECAY_DATE":null,"MEAN_MOTION":"15.06402927","MEAN_ANOMALY":"290.7019","CLASSIFICATION_TYPE":"U","SEMIMAJOR_AXIS":"6925.340","MEAN_MOTION_DDOT":"0.0000000000000","LAUNCH_DATE":"2020-10-06","GP_ID":"190622333","ECCENTRICITY":"0.00017720","ELEMENT_SET_NO":"999","BSTAR":"0.00003950700000","OBJECT_TYPE":"PAYLOAD","SITE":"AFETR","TIME_SYSTEM":"UTC","OBJECT_NAME":"STARLINK-1737","INCLINATION":"53.0556","OBJECT_ID":"2020-070BG","TLE_LINE2":"2 46586  53.0556 332.9419 0001772  69.4160 290.7019 15.06402927 64216","EPHEMERIS_TYPE":"0","REF_FRAME":"TEME","APOAPSIS":"548.432","PERIAPSIS":"545.977","CENTER_NAME":"EARTH","EPOCH":"2021-11-27T17:56:50.750304","ARG_OF_PERICENTER":"69.4160","PERIOD":"95.592","MEAN_MOTION_DOT":"0.00000307","REV_AT_EPOCH":"6421","MEAN_ELEMENT_THEORY":"SGP4","TLE_LINE1":"1 46586U 20070BG  21331.74780961  .00000307  00000-0  39507-4 0  9998","RCS_SIZE":"LARGE"},{"CLASSIFICATION_TYPE":"U","SEMIMAJOR_AXIS":"6925.351","MEAN_ANOMALY":"295.5290","MEAN_MOTION":"15.06399278","DECAY_DATE":null,"COUNTRY_CODE":"US","NORAD_CAT_ID":"46588","FILE":"3225675","RA_OF_ASC_NODE":"333.0113","TIME_SYSTEM":"UTC","OBJECT_NAME":"STARLINK-1746","SITE":"AFETR","OBJECT_TYPE":"PAYLOAD","BSTAR":"0.00017151000000","ELEMENT_SET_NO":"999","ECCENTRICITY":"0.00016800","LAUNCH_DATE":"2020-10-06","GP_ID":"190622583","MEAN_MOTION_DDOT":"0.0000000000000","CENTER_NAME":"EARTH","PERIAPSIS":"546.052","REF_FRAME":"TEME","APOAPSIS":"548.379","EPHEMERIS_TYPE":"0","TLE_LINE2":"2 46588  53.0545 333.0113 0001680  64.5873 295.5290 15.06399278 64212","OBJECT_ID":"2020-070BJ","INCLINATION":"53.0545","RCS_SIZE":"LARGE","TLE_LINE1":"1 46588U 20070BJ  21331.72938469  .00002274  00000-0  17151-3 0  9991","MEAN_ELEMENT_THEORY":"SGP4","REV_AT_EPOCH":"6421","MEAN_MOTION_DOT":"0.00002274","PERIOD":"95.592","ARG_OF_PERICENTER":"64.5873","EPOCH":"2021-11-27T17:30:18.837216"}];
